{
  "norad_id": 66435,
  "name": "STARLINK-35502",
  "history": [
    {
      "epoch": "2026-03-28T21:36:19.177344Z",
      "apogee_km": 483.677033316475,
      "perigee_km": 482.33499374302846,
      "latitude_deg": 1.6086108979116314e-05,
      "longitude_deg": 15.081876375580727,
      "height_km": 482.8806392999712,
      "semi_major_axis_km": 6861.143013529751,
      "eccentricity": 9.78e-05,
      "inclination_deg": 43.0005,
      "raan_deg": 165.4758,
      "arg_perigee_deg": 261.58,
      "mean_anomaly_deg": 98.4941,
      "mean_motion_rev_day": 15.27594388
    },
    {
      "epoch": "2026-03-29T05:27:06.517728Z",
      "apogee_km": 483.1644376524582,
      "perigee_km": 482.85568603467436,
      "latitude_deg": 1.8327834472534268e-05,
      "longitude_deg": -104.77991638169392,
      "height_km": 482.864747730795,
      "semi_major_axis_km": 6861.147061843566,
      "eccentricity": 2.25e-05,
      "inclination_deg": 43.0005,
      "raan_deg": 163.6335,
      "arg_perigee_deg": 120.9684,
      "mean_anomaly_deg": 239.119,
      "mean_motion_rev_day": 15.27593036
    },
    {
      "epoch": "2026-03-30T04:59:27.648960Z",
      "apogee_km": 483.24858411756213,
      "perigee_km": 482.75046560585633,
      "latitude_deg": -1.626861336729784e-05,
      "longitude_deg": -104.37732016436888,
      "height_km": 482.6789030515197,
      "semi_major_axis_km": 6861.1365248617085,
      "eccentricity": 3.63e-05,
      "inclination_deg": 43.0005,
      "raan_deg": 158.0909,
      "arg_perigee_deg": 292.7798,
      "mean_anomaly_deg": 67.3015,
      "mean_motion_rev_day": 15.27596555
    },
    {
      "epoch": "2026-03-30T04:59:27.649824Z",
      "apogee_km": 483.2488585630226,
      "perigee_km": 482.75019116039584,
      "latitude_deg": -1.3379126252978414e-05,
      "longitude_deg": -104.37732069278809,
      "height_km": 482.6787968052083,
      "semi_major_axis_km": 6861.1365248617085,
      "eccentricity": 3.634e-05,
      "inclination_deg": 43.0005,
      "raan_deg": 158.0909,
      "arg_perigee_deg": 292.7798,
      "mean_anomaly_deg": 67.3015,
      "mean_motion_rev_day": 15.27596555
    },
    {
      "epoch": "2026-03-30T14:24:23.594112Z",
      "apogee_km": 483.91185945554844,
      "perigee_km": 482.0257414710022,
      "latitude_deg": 4.802770797050359e-05,
      "longitude_deg": 111.7871615563118,
      "height_km": 482.69675574973024,
      "semi_major_axis_km": 6861.105800463275,
      "eccentricity": 0.00013745,
      "inclination_deg": 43.0,
      "raan_deg": 155.8751,
      "arg_perigee_deg": 272.9615,
      "mean_anomaly_deg": 87.108,
      "mean_motion_rev_day": 15.27606816
    },
    {
      "epoch": "2026-03-30T20:41:01.286880Z",
      "apogee_km": 483.5057996608966,
      "perigee_km": 482.47004424267925,
      "latitude_deg": 1.4818944092643288e-05,
      "longitude_deg": 15.893680393768165,
      "height_km": 482.69603742008456,
      "semi_major_axis_km": 6861.124921951788,
      "eccentricity": 7.548e-05,
      "inclination_deg": 42.9967,
      "raan_deg": 154.3965,
      "arg_perigee_deg": 277.5066,
      "mean_anomaly_deg": 82.57,
      "mean_motion_rev_day": 15.2760043
    },
    {
      "epoch": "2026-03-31T12:22:34.925664Z",
      "apogee_km": 483.9518583355748,
      "perigee_km": 482.02964478469767,
      "latitude_deg": -3.4739931627138865e-05,
      "longitude_deg": 136.16779146159422,
      "height_km": 482.9327854490268,
      "semi_major_axis_km": 6861.127751560136,
      "eccentricity": 0.00014008,
      "inclination_deg": 42.9998,
      "raan_deg": 150.7053,
      "arg_perigee_deg": 260.0909,
      "mean_anomaly_deg": 99.9784,
      "mean_motion_rev_day": 15.27599485
    },
    {
      "epoch": "2026-04-01T19:45:41.834304Z",
      "apogee_km": 483.68139340833204,
      "perigee_km": 482.58907886833913,
      "latitude_deg": -3.1169825234534176e-05,
      "longitude_deg": 16.71206444726288,
      "height_km": 482.74853658943385,
      "semi_major_axis_km": 6861.272236138335,
      "eccentricity": 7.96e-05,
      "inclination_deg": 42.9985,
      "raan_deg": 143.3173,
      "arg_perigee_deg": 287.3321,
      "mean_anomaly_deg": 72.7443,
      "mean_motion_rev_day": 15.27551233
    },
    {
      "epoch": "2026-04-02T09:53:06.880416Z",
      "apogee_km": 483.9556411814092,
      "perigee_km": 482.13358579213127,
      "latitude_deg": 1.779874035208737e-05,
      "longitude_deg": 160.95692175350865,
      "height_km": 482.76144631006935,
      "semi_major_axis_km": 6861.18161348677,
      "eccentricity": 0.00013278,
      "inclination_deg": 42.999,
      "raan_deg": 139.9965,
      "arg_perigee_deg": 273.7574,
      "mean_anomaly_deg": 86.3126,
      "mean_motion_rev_day": 15.27581497
    },
    {
      "epoch": "2026-04-03T03:08:50.084736Z",
      "apogee_km": 484.09889983647463,
      "perigee_km": 481.7854811550242,
      "latitude_deg": 2.7107541024839105e-05,
      "longitude_deg": -102.74431111620281,
      "height_km": 482.4507753219971,
      "semi_major_axis_km": 6861.07919049575,
      "eccentricity": 0.00016859,
      "inclination_deg": 42.9984,
      "raan_deg": 135.9342,
      "arg_perigee_deg": 283.4051,
      "mean_anomaly_deg": 76.6613,
      "mean_motion_rev_day": 15.27615703
    },
    {
      "epoch": "2026-04-04T10:31:56.743680Z",
      "apogee_km": 483.7752549561392,
      "perigee_km": 482.154662673468,
      "latitude_deg": 3.4232733253283016e-05,
      "longitude_deg": 137.80370673348796,
      "height_km": 482.4969315398829,
      "semi_major_axis_km": 6861.101958814804,
      "eccentricity": 0.0001181,
      "inclination_deg": 42.9985,
      "raan_deg": 128.5489,
      "arg_perigee_deg": 287.5517,
      "mean_anomaly_deg": 72.5206,
      "mean_motion_rev_day": 15.27608099
    },
    {
      "epoch": "2026-04-05T11:38:29.110560Z",
      "apogee_km": 484.3109897469694,
      "perigee_km": 481.9579853030391,
      "latitude_deg": 3.117566361894499e-05,
      "longitude_deg": 114.22835045824904,
      "height_km": 482.72522374836063,
      "semi_major_axis_km": 6861.271487525004,
      "eccentricity": 0.00017147,
      "inclination_deg": 43.0005,
      "raan_deg": 122.6396,
      "arg_perigee_deg": 279.1104,
      "mean_anomaly_deg": 80.9554,
      "mean_motion_rev_day": 15.27551483
    },
    {
      "epoch": "2026-04-06T03:20:04.047072Z",
      "apogee_km": 483.79192404580044,
      "perigee_km": 482.34036790823757,
      "latitude_deg": -2.967679494273947e-05,
      "longitude_deg": -125.50567467019408,
      "height_km": 482.820282114398,
      "semi_major_axis_km": 6861.203145977019,
      "eccentricity": 0.00010578,
      "inclination_deg": 43.0001,
      "raan_deg": 118.9457,
      "arg_perigee_deg": 271.7601,
      "mean_anomaly_deg": 88.3129,
      "mean_motion_rev_day": 15.27574306
    },
    {
      "epoch": "2026-04-07T01:18:13.909824Z",
      "apogee_km": 483.6694860045154,
      "perigee_km": 482.09515651106085,
      "latitude_deg": -1.0012901103119165e-05,
      "longitude_deg": -101.11800225345169,
      "height_km": 482.64709655859394,
      "semi_major_axis_km": 6861.019321257788,
      "eccentricity": 0.00011473,
      "inclination_deg": 42.9993,
      "raan_deg": 113.7767,
      "arg_perigee_deg": 270.8467,
      "mean_anomaly_deg": 89.2253,
      "mean_motion_rev_day": 15.27635698
    },
    {
      "epoch": "2026-04-08T07:07:11.968320Z",
      "apogee_km": 484.31067268987226,
      "perigee_km": 481.891262957658,
      "latitude_deg": -4.0134783156619036e-05,
      "longitude_deg": 163.4013466966092,
      "height_km": 482.8907708755957,
      "semi_major_axis_km": 6861.237967823765,
      "eccentricity": 0.00017631,
      "inclination_deg": 43.0012,
      "raan_deg": 106.7625,
      "arg_perigee_deg": 269.3998,
      "mean_anomaly_deg": 90.6651,
      "mean_motion_rev_day": 15.27562677
    },
    {
      "epoch": "2026-04-09T01:57:05.051808Z",
      "apogee_km": 484.0870641128431,
      "perigee_km": 482.024315142633,
      "latitude_deg": -1.832484270796497e-05,
      "longitude_deg": -124.2755922677983,
      "height_km": 483.1207724067725,
      "semi_major_axis_km": 6861.192689627738,
      "eccentricity": 0.00015032,
      "inclination_deg": 43.0,
      "raan_deg": 102.3301,
      "arg_perigee_deg": 253.763,
      "mean_anomaly_deg": 106.3056,
      "mean_motion_rev_day": 15.27577798
    },
    {
      "epoch": "2026-04-10T09:20:12.641280Z",
      "apogee_km": 484.23660069405105,
      "perigee_km": 481.7720787248272,
      "latitude_deg": -5.8849605415789406e-05,
      "longitude_deg": 116.27018383759443,
      "height_km": 482.6574085522442,
      "semi_major_axis_km": 6861.141339709438,
      "eccentricity": 0.0001796,
      "inclination_deg": 43.0024,
      "raan_deg": 94.9465,
      "arg_perigee_deg": 275.7862,
      "mean_anomaly_deg": 84.2784,
      "mean_motion_rev_day": 15.27594947
    },
    {
      "epoch": "2026-04-11T05:44:14.930016Z",
      "apogee_km": 484.4551670181245,
      "perigee_km": 481.6064101523043,
      "latitude_deg": 5.0224872657803414e-06,
      "longitude_deg": 164.62618937804305,
      "height_km": 482.4155671246607,
      "semi_major_axis_km": 6861.167788585214,
      "eccentricity": 0.0002076,
      "inclination_deg": 43.0041,
      "raan_deg": 90.1498,
      "arg_perigee_deg": 286.0122,
      "mean_anomaly_deg": 74.0501,
      "mean_motion_rev_day": 15.27586114
    },
    {
      "epoch": "2026-04-13T04:48:56.666304Z",
      "apogee_km": 484.2285514096038,
      "perigee_km": 481.8846304550698,
      "latitude_deg": 3.37171704331783e-06,
      "longitude_deg": 165.43464940245482,
      "height_km": 483.0028399818612,
      "semi_major_axis_km": 6861.1935909323365,
      "eccentricity": 0.00017081,
      "inclination_deg": 43.0003,
      "raan_deg": 79.0656,
      "arg_perigee_deg": 261.6939,
      "mean_anomaly_deg": 98.3719,
      "mean_motion_rev_day": 15.27577497
    }
  ]
}